STARLINK-32683          
1 62445U 24251P   26048.04315307  .00024064  00000+0  82181-3 0  9996
2 62445  53.1597  71.4628 0001487  88.4484 271.6687 15.30206315 64785
STARLINK-32726          
1 62446U 24251Q   26048.07364091  .00025853  00000+0  88150-3 0  9993
2 62446  53.1585  70.9439 0001463  88.8263 271.2905 15.30216949 64480
STARLINK-32730          
1 62447U 24251R   26047.47842038  .00029821  00000+0  10148-2 0  9999
2 62447  53.1589  73.6305 0001077  80.7042 279.4081 15.30203894 64709
STARLINK-32719          
1 62448U 24251S   26048.06317819  .00025391  00000+0  86613-3 0  9999
2 62448  53.1594  71.4434 0001415  93.2964 266.8199 15.30212331 64619
STARLINK-32723          
1 62449U 24251T   26048.07575094  .00026180  00000+0  89254-3 0  9993
2 62449  53.1582  70.9585 0001387  94.7618 265.3541 15.30213646 64635
STARLINK-32722          
1 62450U 24251U   26048.07047759  .00026148  00000+0  89175-3 0  9993
2 62450  53.1590  70.9221 0001396 100.9779 259.1378 15.30203829 64429
STARLINK-32720          
1 62451U 24251V   26047.44793192  .00019288  00000+0  66182-3 0  9993
2 62451  53.1582  74.1544 0001166  95.7174 264.3960 15.30192281 64323
STARLINK-32656          
1 62452U 24251W   26048.05053924  .00027884  00000+0  94967-3 0  9997
2 62452  53.1615  71.5101 0001535  73.8433 286.2737 15.30212484 64622
STARLINK-32690          
1 62453U 24251X   26048.06730774  .00018133  00000+0  62261-3 0  9993
2 62453  53.1590  70.9037 0001450  97.0775 263.0391 15.30211882 64416
STARLINK-11518 [DTC]    
1 62462U 24254A   26047.87749965  .00199199  00000+0  15171-2 0  9995
2 62462  42.9998 348.8231 0000841 244.8361 115.2419 15.70869186 66133
STARLINK-11455 [DTC]    
1 62463U 24254B   26047.88280355  .00248789  00000+0  18816-2 0  9999
2 62463  43.0007 348.8648 0001983 275.1127  84.9515 15.70881514 66121
STARLINK-11178 [DTC]    
1 62465U 24254D   26048.18479977  .00219228  00000+0  16657-2 0  9992
2 62465  42.9996 346.8200 0001629 253.0874 106.9815 15.70862793 66015
STARLINK-11506 [DTC]    
1 62466U 24254E   26047.95156918  .00311358  00000+0  23227-2 0  9992
2 62466  42.9992 347.6267 0003052 207.1979 152.8729 15.71017823 65988
STARLINK-11486 [DTC]    
1 62467U 24254F   26047.80861051  .00434253  00000+0  31896-2 0  9999
2 62467  43.0000 349.1632 0001829 247.7676 112.2998 15.71022720 66114
STARLINK-11511 [DTC]    
1 62468U 24254G   26048.16885625  .00129902  00000+0  99785-3 0  9997
2 62468  42.9992 346.6908 0001602 262.2116  97.8570 15.70893701 66175
STARLINK-11505 [DTC]    
1 62469U 24254H   26048.15825708  .00209740  00000+0  15953-2 0  9996
2 62469  43.0008 346.6056 0000893 297.0169  63.0608 15.70867862 66160
STARLINK-11497 [DTC]    
1 62470U 24254J   26047.98342965  .00137251  00000+0  10539-2 0  9999
2 62470  42.9995 347.8841 0001257 257.6316 102.4411 15.70878006 66141
STARLINK-11477 [DTC]    
1 62471U 24254K   26048.16977538  .00307205  00000+0  23015-2 0  9992
2 62471  43.0003 346.6967 0001442 305.6142  54.4592 15.70930508 66161
STARLINK-11500 [DTC]    
1 62472U 24254L   26047.95688258  .00126640  00000+0  97244-3 0  9995
2 62472  42.9997 347.6667 0001699 238.6555 121.4146 15.70913663 65619
STARLINK-11464 [DTC]    
1 62473U 24254M   26048.17949314  .00250311  00000+0  18926-2 0  9996
2 62473  42.9986 346.7731 0000998 334.5900  25.4918 15.70883745 66226
STARLINK-11502 [DTC]    
1 62474U 24254N   26048.16356052  .00272093  00000+0  20490-2 0  9997
2 62474  43.0001 346.6461 0001319 287.0785  72.9938 15.70913232 66175
STARLINK-32657          
1 62475U 24254P   26047.56165608  .00033647  00000+0  12266-2 0  9998
2 62475  43.0038 138.9959 0001829 269.4541  90.6101 15.27581854 64237
STARLINK-32734          
1 62476U 24254Q   26047.71602148  .00024725  00000+0  90400-3 0  9995
2 62476  43.0052 134.9690 0003931 290.4601  69.5829 15.27611700 64448
STARLINK-32733          
1 62477U 24254R   26048.19928164  .00014166  00000+0  52306-3 0  9999
2 62477  43.0033 131.7107 0001758 256.4805 103.5851 15.27596326 64528
STARLINK-32707          
1 62478U 24254S   26047.70574343  .00022632  00000+0  82873-3 0  9991
2 62478  43.0015 134.8824 0001417 252.5510 107.5187 15.27608085 64444
STARLINK-32705          
1 62479U 24254T   26048.17840987  .00025903  00000+0  94714-3 0  9995
2 62479  42.9983 124.6300 0000518 251.9854 108.0941 15.27593686 64442
STARLINK-32743          
1 62480U 24254U   26047.53770751  .00028884  00000+0  10550-2 0  9993
2 62480  43.0032 135.3474 0002533 281.1128  78.9439 15.27581087 64427
STARLINK-32753          
1 62481U 24254V   26048.20698101  .00035714  00000+0  12994-2 0  9991
2 62481  43.0024 131.7684 0000856 259.9335 100.1420 15.27623483 64527
STARLINK-32699          
1 62482U 24254W   26047.62060332  .00032909  00000+0  11996-2 0  9990
2 62482  43.0018 138.5775 0001852 290.3859  69.6794 15.27592703 64246
STARLINK-32713          
1 62487U 25003A   26048.04612376  .00024798  00000+0  90700-3 0  9994
2 62487  43.0042  45.6259 0001318 272.5349  87.5352 15.27602738 63491
STARLINK-32732          
1 62488U 25003B   26048.01269490  .00026470  00000+0  96761-3 0  9999
2 62488  42.9952  45.3610 0000982 225.1411 134.9361 15.27592590 63398
STARLINK-32328          
1 62489U 25003C   26048.06152228  .00031309  00000+0  11416-2 0  9995
2 62489  42.9965  45.7228 0002582 167.3971 192.6945 15.27602043 63516
STARLINK-32332          
1 62490U 25003D   26048.04996429  .00027215  00000+0  99451-3 0  9991
2 62490  43.0039  45.6519 0001441 269.8984  90.1703 15.27591833 63494
STARLINK-32717          
1 62491U 25003E   26048.03069213  .00032130  00000+0  11717-2 0  9993
2 62491  43.0018  45.5051 0001310 184.9368 175.1471 15.27590387 63512
STARLINK-32757          
1 62492U 25003F   26048.05639013  .00024317  00000+0  89013-3 0  9990
2 62492  43.0024  45.6940 0001544 248.6683 111.4004 15.27585010 63393
STARLINK-32731          
1 62493U 25003G   26048.00384711  .00028558  00000+0  10425-2 0  9999
2 62493  42.9967  46.1602 0001861 137.9823 222.1172 15.27605159 63503
STARLINK-32694          
1 62494U 25003H   26048.02040278  .00038800  00000+0  14106-2 0  9990
2 62494  42.9941  45.4173 0003064 146.7054 213.3991 15.27612307 63517
STARLINK-32708          
1 62495U 25003J   26047.98714015  .00041807  00000+0  15185-2 0  9991
2 62495  43.0026  46.0366 0001195 253.8905 106.1815 15.27616097 63382
STARLINK-32718          
1 62496U 25003K   26048.01654611  .00025070  00000+0  91651-3 0  9999
2 62496  42.9955  45.3973 0000445 224.9055 135.1761 15.27614234 63394
STARLINK-32729          
1 62497U 25003L   26048.02425479  .00027472  00000+0  10034-2 0  9992
2 62497  42.9995  45.4460 0001369 173.0699 187.0171 15.27604132 63516
STARLINK-32739          
1 62498U 25003M   26048.03968610  .00027051  00000+0  98872-3 0  9993
2 62498  43.0035  45.5685 0001339 254.2093 105.8611 15.27587048 63468
STARLINK-32714          
1 62499U 25003N   26048.00256118  .00036262  00000+0  13200-2 0  9999
2 62499  42.9996  46.1521 0000639 230.8146 129.2649 15.27599664 63503
STARLINK-32685          
1 62500U 25003P   26048.06025111  .00027497  00000+0  10044-2 0  9998
2 62500  43.0013  45.7251 0001636 275.9265  84.1400 15.27598886 63467
STARLINK-32691          
1 62501U 25003Q   26048.03839009  .00022726  00000+0  83229-3 0  9991
2 62501  42.9911  45.5453 0002817 150.4847 209.6164 15.27598041 63509
STARLINK-32788          
1 62502U 25003R   26048.03453458  .00028810  00000+0  10516-2 0  9990
2 62502  42.9953  45.5216 0002035 163.1676 196.9243 15.27603314 63399
STARLINK-32768          
1 62503U 25003S   26048.01784205  .00024999  00000+0  91486-3 0  9996
2 62503  42.9990  45.4002 0001271 255.0593 105.0118 15.27580439 63397
STARLINK-32792          
1 62504U 25003T   26048.00886566  .00023264  00000+0  85305-3 0  9996
2 62504  42.9933  45.3255 0000649 231.1244 128.9550 15.27548817 63398
STARLINK-32725          
1 62505U 25003U   26048.01012255  .00031983  00000+0  11661-2 0  9994
2 62505  42.9954  45.3252 0000970 231.3350 128.7415 15.27599207 63393
STARLINK-32681          
1 62506U 25003V   26047.97906299  .00023492  00000+0  85973-3 0  9993
2 62506  43.0002  27.3747 0001482  86.0014 274.1008 15.27608094 63715
STARLINK-32679          
1 62507U 25003W   26048.07181041  .00028620  00000+0  10457-2 0  9998
2 62507  42.9975  45.7671 0001509 245.9436 114.1257 15.27574165 63515
STARLINK-32749          
1 62508U 25003X   26048.02812898  .00033810  00000+0  12332-2 0  9996
2 62508  43.0011  45.4764 0001362 244.9447 115.1264 15.27562941 63391
STARLINK-32744          
1 62509U 25003Y   26047.99870656  .00026691  00000+0  97540-3 0  9992
2 62509  42.9976  46.1211 0001059 238.4994 121.5754 15.27598514 63382
STARLINK-32701          
1 62510U 25003Z   26048.04225493  .00042546  00000+0  15457-2 0  9997
2 62510  43.0020  45.5872 0001307 233.3356 126.7375 15.27601872 63393
STARLINK-11452 [DTC]    
1 62511U 25004A   26047.80143630  .00216422  00000+0  16458-2 0  9992
2 62511  43.0017 196.6157 0002026 323.6065  36.4665 15.70851336 64843
STARLINK-11443 [DTC]    
1 62512U 25004B   26047.83328480  .00283911  00000+0  21199-2 0  9999
2 62512  42.9999 196.8671 0004437 231.9039 128.1429 15.71074645 63920
STARLINK-11440 [DTC]    
1 62513U 25004C   26047.88094013  .00248686  00000+0  18750-2 0  9996
2 62513  42.9984 196.3559 0002284 240.4695 119.5945 15.70954952 63931
STARLINK-11514 [DTC]    
1 62514U 25004D   26046.77971935  .00260238  00000+0  19673-2 0  9993
2 62514  42.9981 202.7070 0001266 298.2392  61.8348 15.70857898 63761
STARLINK-11508 [DTC]    
1 62515U 25004E   26047.53648681  .00239739  00000+0  18175-2 0  9996
2 62515  43.0002 198.0587 0003604 285.1020  74.9449 15.70849332 63883
STARLINK-11510 [DTC]    
1 62516U 25004F   26047.88624561  .00263313  00000+0  19896-2 0  9992
2 62516  42.9983 196.3966 0002163 275.2704  84.7917 15.70859548 63935
